ORBCOMM FM103 [+]       
1 40091U 14040F   24090.33775910  .00001475  00000+0  36630-3 0  9990
2 40091  47.0064 311.1267 0001567  31.4732 328.6246 14.56425361499366
ORBCOMM FM114 [+]       
1 41179U 15081A   24090.64624816  .00001858  00000+0  45143-3 0  9990
2 41179  47.0009 218.9698 0001080 141.0977 218.9985 14.56445634439779
ORBCOMM FM119 [-]       
1 41180U 15081B   24090.40970533  .00001301  00000+0  32758-3 0  9997
2 41180  46.9996 129.2710 0001575 216.4571 143.6207 14.56414463440992
ORBCOMM FM105 [-]       
1 41181U 15081C   24090.31578813  .00000725  00000+0  25423-3 0  9993
2 41181  47.0008  92.8725 0001131 158.4304 201.6624 14.44296340436562
ORBCOMM FM110 [+]       
1 41182U 15081D   24090.48615322  .00001725  00000+0  42210-3 0  9993
2 41182  46.9998 219.1345 0002459 278.3928  81.6678 14.56432834439627
ORBCOMM FM118 [+]       
1 41183U 15081E   24090.46336146  .00002128  00000+0  51178-3 0  9997
2 41183  47.0021 219.5381 0002616 276.8340  83.2247 14.56433608439728
ORBCOMM FM112 [+]       
1 41184U 15081F   24090.38763669  .00001613  00000+0  39704-3 0  9992
2 41184  46.9969 128.6048 0001098 218.3038 141.7769 14.56426487440937
ORBCOMM FM113 [+]       
1 41185U 15081G   24090.50190826  .00001420  00000+0  35412-3 0  9994
2 41185  46.9998 128.3256 0001299 235.9998 124.0764 14.56422751440930
